[{"OBJECT_NAME":"STARLINK-30949","OBJECT_ID":"2023-180P","EPOCH":"2026-03-09T00:35:46.058496","MEAN_MOTION":15.27571086,"ECCENTRICITY":0.0001604,"INCLINATION":43.0054,"RA_OF_ASC_NODE":56.3333,"ARG_OF_PERICENTER":281.2638,"MEAN_ANOMALY":78.8034,"EPHEMERIS_TYPE":0,"CLASSIFICATION_TYPE":"U","NORAD_CAT_ID":58415,"ELEMENT_SET_NO":999,"REV_AT_EPOCH":12752,"BSTAR":-1.075297e-5,"MEAN_MOTION_DOT":-5.58e-6,"MEAN_MOTION_DDOT":0},{"OBJECT_NAME":"NUSAT-45 (UZMASAT-1)","OBJECT_ID":"2025-009AH","EPOCH":"2026-03-09T03:44:32.024544","MEAN_MOTION":15.26632732,"ECCENTRICITY":0.00011721,"INCLINATION":97.3985,"RA_OF_ASC_NODE":150.3373,"ARG_OF_PERICENTER":1.4631,"MEAN_ANOMALY":358.6611,"EPHEMERIS_TYPE":0,"CLASSIFICATION_TYPE":"U","NORAD_CAT_ID":62640,"ELEMENT_SET_NO":999,"REV_AT_EPOCH":6363,"BSTAR":0.00048087023,"MEAN_MOTION_DOT":0.00012539,"MEAN_MOTION_DDOT":0}]
